[{"OBJECT_NAME":"SKYKRAFT-1C","OBJECT_ID":"2023-001BE","EPOCH":"2026-03-09T17:01:49.738944","MEAN_MOTION":15.24327539,"ECCENTRICITY":0.00119736,"INCLINATION":97.3326,"RA_OF_ASC_NODE":124.5476,"ARG_OF_PERICENTER":132.0782,"MEAN_ANOMALY":228.1477,"EPHEMERIS_TYPE":0,"CLASSIFICATION_TYPE":"U","NORAD_CAT_ID":55061,"ELEMENT_SET_NO":999,"REV_AT_EPOCH":17632,"BSTAR":0.00018809338,"MEAN_MOTION_DOT":4.538e-5,"MEAN_MOTION_DDOT":0},{"OBJECT_NAME":"PUCP-SAT 1","OBJECT_ID":"2013-066AC","EPOCH":"2026-03-09T22:02:13.763904","MEAN_MOTION":15.29426022,"ECCENTRICITY":0.00136836,"INCLINATION":97.5787,"RA_OF_ASC_NODE":61.0032,"ARG_OF_PERICENTER":300.1183,"MEAN_ANOMALY":59.87,"EPHEMERIS_TYPE":0,"CLASSIFICATION_TYPE":"U","NORAD_CAT_ID":39442,"ELEMENT_SET_NO":999,"REV_AT_EPOCH":66907,"BSTAR":0.00088755185,"MEAN_MOTION_DOT":0.00025373,"MEAN_MOTION_DDOT":0}]
